IRIDIUM 136             
1 42962U 17061H   23270.54053954  .00000198  00000+0  63796-4 0  9999
2 42962  86.3916  80.5115 0002353  88.7371 271.4094 14.34220004312413
